STARLINK-35708          
1 66277U 25247N   25333.76740648  .00059548  00000+0  14871-2 0  9999
2 66277  53.1592 298.5130 0001324  87.8996 272.2160 15.39619605  5741
STARLINK-35713          
1 66278U 25247P   25333.76276205  .00069742  00000+0  17362-2 0  9998
2 66278  53.1596 298.4828 0001430  88.3273 271.7896 15.39644606  5740
STARLINK-35724          
1 66279U 25247Q   25333.76242419  .00072290  00000+0  17989-2 0  9996
2 66279  53.1600 298.4817 0000992  97.8270 262.2848 15.39641148  5693
STARLINK-35726          
1 66280U 25247R   25333.76706949  .00052240  00000+0  13072-2 0  9993
2 66280  53.1593 298.5108 0001246 102.9723 257.1421 15.39615509  5696
STARLINK-35727          
1 66281U 25247S   25333.83335647  .00077923  00000+0  19414-2 0  9996
2 66281  53.1596 298.0984 0001696  94.6092 322.7597 15.39569141  5549
STARLINK-35776          
1 66282U 25247T   25333.83335647  .00076402  00000+0  19038-2 0  9990
2 66282  53.1596 298.0944 0001601  92.9828 326.2493 15.39574324  5543
STARLINK-35774          
1 66283U 25247U   25333.83335647  .00074549  00000+0  18582-2 0  9994
2 66283  53.1592 298.0471 0001193 103.9368 339.1798 15.39576370  5547
STARLINK-35830          
1 66284U 25247V   25333.83335647  .00096268  00000+0  23897-2 0  9992
2 66284  53.1594 298.0427 0001243 106.4887 338.4919 15.39577722  5540
STARLINK-35819          
1 66285U 25247W   25333.83335647  .00075958  00000+0  18933-2 0  9991
2 66285  53.1587 297.9952 0001544  96.6778  12.2060 15.39568477  5492
STARLINK-35783          
1 66286U 25247X   25333.83335647  .00075128  00000+0  18728-2 0  9993
2 66286  53.1587 297.9907 0001459  90.8629  19.8861 15.39570281  5497
STARLINK-34884          
1 66287U 25247Y   25333.83335647  .00073063  00000+0  18219-2 0  9995
2 66287  53.1581 297.9434 0001184  98.5269  36.1099 15.39573304  5817
STARLINK-34896          
1 66288U 25247Z   25333.83335647  .00073482  00000+0  18324-2 0  9998
2 66288  53.1580 297.9395 0001257  97.6709  38.8349 15.39569647  5815
