CCSDS_OMM_VERS = 2.0
CREATION_DATE  = 
ORIGINATOR     = 

OBJECT_NAME    = STARLINK-35708
OBJECT_ID      = 2025-247N
CENTER_NAME    = EARTH
REF_FRAME      = TEME
TIME_SYSTEM    = UTC
MEAN_ELEMENT_THEORY = SGP/SGP4

EPOCH          = 2025-11-29T18:25:03.919872
MEAN_MOTION    = 15.39619605
ECCENTRICITY   = .0001324
INCLINATION    = 53.1592
RA_OF_ASC_NODE = 298.5130
ARG_OF_PERICENTER = 87.8996
MEAN_ANOMALY   = 272.2160

EPHEMERIS_TYPE = 0
CLASSIFICATION_TYPE = U
NORAD_CAT_ID   = 66277
ELEMENT_SET_NO = 999
REV_AT_EPOCH   = 574
BSTAR          = .14871E-2
MEAN_MOTION_DOT = .59548E-3
MEAN_MOTION_DDOT = 0

CCSDS_OMM_VERS = 2.0
CREATION_DATE  = 
ORIGINATOR     = 

OBJECT_NAME    = STARLINK-35713
OBJECT_ID      = 2025-247P
CENTER_NAME    = EARTH
REF_FRAME      = TEME
TIME_SYSTEM    = UTC
MEAN_ELEMENT_THEORY = SGP/SGP4

EPOCH          = 2025-11-29T18:18:22.641120
MEAN_MOTION    = 15.39644606
ECCENTRICITY   = .000143
INCLINATION    = 53.1596
RA_OF_ASC_NODE = 298.4828
ARG_OF_PERICENTER = 88.3273
MEAN_ANOMALY   = 271.7896

EPHEMERIS_TYPE = 0
CLASSIFICATION_TYPE = U
NORAD_CAT_ID   = 66278
ELEMENT_SET_NO = 999
REV_AT_EPOCH   = 574
BSTAR          = .17362E-2
MEAN_MOTION_DOT = .69742E-3
MEAN_MOTION_DDOT = 0

CCSDS_OMM_VERS = 2.0
CREATION_DATE  = 
ORIGINATOR     = 

OBJECT_NAME    = STARLINK-35724
OBJECT_ID      = 2025-247Q
CENTER_NAME    = EARTH
REF_FRAME      = TEME
TIME_SYSTEM    = UTC
MEAN_ELEMENT_THEORY = SGP/SGP4

EPOCH          = 2025-11-29T18:17:53.450016
MEAN_MOTION    = 15.39641148
ECCENTRICITY   = .0000992
INCLINATION    = 53.1600
RA_OF_ASC_NODE = 298.4817
ARG_OF_PERICENTER = 97.8270
MEAN_ANOMALY   = 262.2848

EPHEMERIS_TYPE = 0
CLASSIFICATION_TYPE = U
NORAD_CAT_ID   = 66279
ELEMENT_SET_NO = 999
REV_AT_EPOCH   = 569
BSTAR          = .17989E-2
MEAN_MOTION_DOT = .7229E-3
MEAN_MOTION_DDOT = 0

CCSDS_OMM_VERS = 2.0
CREATION_DATE  = 
ORIGINATOR     = 

OBJECT_NAME    = STARLINK-35726
OBJECT_ID      = 2025-247R
CENTER_NAME    = EARTH
REF_FRAME      = TEME
TIME_SYSTEM    = UTC
MEAN_ELEMENT_THEORY = SGP/SGP4

EPOCH          = 2025-11-29T18:24:34.803936
MEAN_MOTION    = 15.39615509
ECCENTRICITY   = .0001246
INCLINATION    = 53.1593
RA_OF_ASC_NODE = 298.5108
ARG_OF_PERICENTER = 102.9723
MEAN_ANOMALY   = 257.1421

EPHEMERIS_TYPE = 0
CLASSIFICATION_TYPE = U
NORAD_CAT_ID   = 66280
ELEMENT_SET_NO = 999
REV_AT_EPOCH   = 569
BSTAR          = .13072E-2
MEAN_MOTION_DOT = .5224E-3
MEAN_MOTION_DDOT = 0

CCSDS_OMM_VERS = 2.0
CREATION_DATE  = 
ORIGINATOR     = 

OBJECT_NAME    = STARLINK-35727
OBJECT_ID      = 2025-247S
CENTER_NAME    = EARTH
REF_FRAME      = TEME
TIME_SYSTEM    = UTC
MEAN_ELEMENT_THEORY = SGP/SGP4

EPOCH          = 2025-11-29T20:00:01.999008
MEAN_MOTION    = 15.39569141
ECCENTRICITY   = .0001696
INCLINATION    = 53.1596
RA_OF_ASC_NODE = 298.0984
ARG_OF_PERICENTER = 94.6092
MEAN_ANOMALY   = 322.7597

EPHEMERIS_TYPE = 0
CLASSIFICATION_TYPE = U
NORAD_CAT_ID   = 66281
ELEMENT_SET_NO = 999
REV_AT_EPOCH   = 554
BSTAR          = .19414E-2
MEAN_MOTION_DOT = .77923E-3
MEAN_MOTION_DDOT = 0

CCSDS_OMM_VERS = 2.0
CREATION_DATE  = 
ORIGINATOR     = 

OBJECT_NAME    = STARLINK-35776
OBJECT_ID      = 2025-247T
CENTER_NAME    = EARTH
REF_FRAME      = TEME
TIME_SYSTEM    = UTC
MEAN_ELEMENT_THEORY = SGP/SGP4

EPOCH          = 2025-11-29T20:00:01.999008
MEAN_MOTION    = 15.39574324
ECCENTRICITY   = .0001601
INCLINATION    = 53.1596
RA_OF_ASC_NODE = 298.0944
ARG_OF_PERICENTER = 92.9828
MEAN_ANOMALY   = 326.2493

EPHEMERIS_TYPE = 0
CLASSIFICATION_TYPE = U
NORAD_CAT_ID   = 66282
ELEMENT_SET_NO = 999
REV_AT_EPOCH   = 554
BSTAR          = .19038E-2
MEAN_MOTION_DOT = .76402E-3
MEAN_MOTION_DDOT = 0

CCSDS_OMM_VERS = 2.0
CREATION_DATE  = 
ORIGINATOR     = 

OBJECT_NAME    = STARLINK-35774
OBJECT_ID      = 2025-247U
CENTER_NAME    = EARTH
REF_FRAME      = TEME
TIME_SYSTEM    = UTC
MEAN_ELEMENT_THEORY = SGP/SGP4

EPOCH          = 2025-11-29T20:00:01.999008
MEAN_MOTION    = 15.39576370
ECCENTRICITY   = .0001193
INCLINATION    = 53.1592
RA_OF_ASC_NODE = 298.0471
ARG_OF_PERICENTER = 103.9368
MEAN_ANOMALY   = 339.1798

EPHEMERIS_TYPE = 0
CLASSIFICATION_TYPE = U
NORAD_CAT_ID   = 66283
ELEMENT_SET_NO = 999
REV_AT_EPOCH   = 554
BSTAR          = .18582E-2
MEAN_MOTION_DOT = .74549E-3
MEAN_MOTION_DDOT = 0

CCSDS_OMM_VERS = 2.0
CREATION_DATE  = 
ORIGINATOR     = 

OBJECT_NAME    = STARLINK-35830
OBJECT_ID      = 2025-247V
CENTER_NAME    = EARTH
REF_FRAME      = TEME
TIME_SYSTEM    = UTC
MEAN_ELEMENT_THEORY = SGP/SGP4

EPOCH          = 2025-11-29T20:00:01.999008
MEAN_MOTION    = 15.39577722
ECCENTRICITY   = .0001243
INCLINATION    = 53.1594
RA_OF_ASC_NODE = 298.0427
ARG_OF_PERICENTER = 106.4887
MEAN_ANOMALY   = 338.4919

EPHEMERIS_TYPE = 0
CLASSIFICATION_TYPE = U
NORAD_CAT_ID   = 66284
ELEMENT_SET_NO = 999
REV_AT_EPOCH   = 554
BSTAR          = .23897E-2
MEAN_MOTION_DOT = .96268E-3
MEAN_MOTION_DDOT = 0

CCSDS_OMM_VERS = 2.0
CREATION_DATE  = 
ORIGINATOR     = 

OBJECT_NAME    = STARLINK-35819
OBJECT_ID      = 2025-247W
CENTER_NAME    = EARTH
REF_FRAME      = TEME
TIME_SYSTEM    = UTC
MEAN_ELEMENT_THEORY = SGP/SGP4

EPOCH          = 2025-11-29T20:00:01.999008
MEAN_MOTION    = 15.39568477
ECCENTRICITY   = .0001544
INCLINATION    = 53.1587
RA_OF_ASC_NODE = 297.9952
ARG_OF_PERICENTER = 96.6778
MEAN_ANOMALY   = 12.2060

EPHEMERIS_TYPE = 0
CLASSIFICATION_TYPE = U
NORAD_CAT_ID   = 66285
ELEMENT_SET_NO = 999
REV_AT_EPOCH   = 549
BSTAR          = .18933E-2
MEAN_MOTION_DOT = .75958E-3
MEAN_MOTION_DDOT = 0

CCSDS_OMM_VERS = 2.0
CREATION_DATE  = 
ORIGINATOR     = 

OBJECT_NAME    = STARLINK-35783
OBJECT_ID      = 2025-247X
CENTER_NAME    = EARTH
REF_FRAME      = TEME
TIME_SYSTEM    = UTC
MEAN_ELEMENT_THEORY = SGP/SGP4

EPOCH          = 2025-11-29T20:00:01.999008
MEAN_MOTION    = 15.39570281
ECCENTRICITY   = .0001459
INCLINATION    = 53.1587
RA_OF_ASC_NODE = 297.9907
ARG_OF_PERICENTER = 90.8629
MEAN_ANOMALY   = 19.8861

EPHEMERIS_TYPE = 0
CLASSIFICATION_TYPE = U
NORAD_CAT_ID   = 66286
ELEMENT_SET_NO = 999
REV_AT_EPOCH   = 549
BSTAR          = .18728E-2
MEAN_MOTION_DOT = .75128E-3
MEAN_MOTION_DDOT = 0

CCSDS_OMM_VERS = 2.0
CREATION_DATE  = 
ORIGINATOR     = 

OBJECT_NAME    = STARLINK-34884
OBJECT_ID      = 2025-247Y
CENTER_NAME    = EARTH
REF_FRAME      = TEME
TIME_SYSTEM    = UTC
MEAN_ELEMENT_THEORY = SGP/SGP4

EPOCH          = 2025-11-29T20:00:01.999008
MEAN_MOTION    = 15.39573304
ECCENTRICITY   = .0001184
INCLINATION    = 53.1581
RA_OF_ASC_NODE = 297.9434
ARG_OF_PERICENTER = 98.5269
MEAN_ANOMALY   = 36.1099

EPHEMERIS_TYPE = 0
CLASSIFICATION_TYPE = U
NORAD_CAT_ID   = 66287
ELEMENT_SET_NO = 999
REV_AT_EPOCH   = 581
BSTAR          = .18219E-2
MEAN_MOTION_DOT = .73063E-3
MEAN_MOTION_DDOT = 0

CCSDS_OMM_VERS = 2.0
CREATION_DATE  = 
ORIGINATOR     = 

OBJECT_NAME    = STARLINK-34896
OBJECT_ID      = 2025-247Z
CENTER_NAME    = EARTH
REF_FRAME      = TEME
TIME_SYSTEM    = UTC
MEAN_ELEMENT_THEORY = SGP/SGP4

EPOCH          = 2025-11-29T20:00:01.999008
MEAN_MOTION    = 15.39569647
ECCENTRICITY   = .0001257
INCLINATION    = 53.1580
RA_OF_ASC_NODE = 297.9395
ARG_OF_PERICENTER = 97.6709
MEAN_ANOMALY   = 38.8349

EPHEMERIS_TYPE = 0
CLASSIFICATION_TYPE = U
NORAD_CAT_ID   = 66288
ELEMENT_SET_NO = 999
REV_AT_EPOCH   = 581
BSTAR          = .18324E-2
MEAN_MOTION_DOT = .73482E-3
MEAN_MOTION_DDOT = 0

